INTELSAT 35E (IS-35E)   
1 42818U 17041A   26165.68187281  .00000000  00000+0  00000+0 0  9995
2 42818   0.0256  11.6725 0001533  69.5322  32.7564  1.00268183 32796
COSMOS 2520             
1 42907U 17046A   26165.91152602  .00000142  00000+0  00000+0 0  9991
2 42907   0.0492  86.3469 0001204  36.5461 153.4587  1.00270588 32376
TDRS 13                 
1 42915U 17047A   26166.18548823 -.00000098  00000+0  00000+0 0  9996
2 42915   3.4512   2.6876 0014419 106.3401 209.7848  1.00271400 32324
QZS-3 (MICHIBIKI-3)     
1 42917U 17048A   26166.00392058  .00000000  00000+0  00000+0 0  9999
2 42917   0.0278 154.0411 0002451 298.4393 299.1623  1.00263823 32235
AMAZONAS 5              
1 42934U 17053A   26166.14905932 -.00000278  00000+0  00000+0 0  9998
2 42934   0.0323 325.4838 0002056  64.8441 225.7689  1.00269145 32029
ASIASAT 9               
1 42942U 17057A   26166.21183501  .00000000  00000+0  00000+0 0  9991
2 42942   0.0415  46.9398 0002457  30.6177  24.3546  1.00263854 31843
INTELSAT 37E (IS-37E)   
1 42950U 17059A   26166.18418823 -.00000136  00000+0  00000+0 0  9997
2 42950   0.0189  27.4261 0002337  79.1326 205.2347  1.00271875 32048
BSAT-4A                 
1 42951U 17059B   26165.81711391 -.00000344  00000+0  00000+0 0  9994
2 42951   0.0440  28.2570 0003862  39.4526 239.3850  1.00269277 31775
QZS-4 (MICHIBIKI-4)     
1 42965U 17062A   26165.35787891 -.00000335  00000+0  00000+0 0  9990
2 42965  40.1096 343.5183 0745249 271.7117 273.4729  1.00251032 31778
SES-11 (ECHOSTAR 105)   
1 42967U 17063A   26166.17128211 -.00000085  00000+0  00000+0 0  9991
2 42967   0.0186 329.0486 0002710  99.1743 151.9540  1.00270584 31703
KOREASAT 5A             
1 42984U 17067A   26166.11294561 -.00000354  00000+0  00000+0 0  9999
2 42984   0.0110  12.2875 0000546  78.5882 326.3402  1.00271739 31508
ALCOMSAT 1              
1 43039U 17078A   26166.18280154 -.00000182  00000+0  00000+0 0  9992
2 43039   0.0374 265.9097 0002226 166.5951 231.9786  1.00269564 31270
SBIRS GEO-3 (USA 282)   
1 43162U 18009A   26166.15623251  .00000131  00000+0  00000+0 0  9993
2 43162   2.1828  12.0065 0001790  64.7553  83.5275  1.00271642 30826
AL YAH 3                
1 43174U 18012A   26166.18375490 -.00000153  00000+0  00000+0 0  9997
2 43174   1.5468  83.1309 0003857 359.8618 226.5206  1.00270010 30829
SES-14                  
1 43175U 18012B   26166.03577625 -.00000274  00000+0  00000+0 0  9990
2 43175   0.0183  21.7779 0000786  58.4421 148.4857  1.00270654  7001
GOES 17                 
1 43226U 18022A   26166.16572440 -.00000179  00000+0  00000+0 0  9996
2 43226   0.9323  85.7475 0000396  32.7385 115.1280  1.00269976 30403
HISPASAT 30W-6          
1 43228U 18023A   26166.18176154 -.00000212  00000+0  00000+0 0  9991
2 43228   0.0457  41.7177 0005662  28.0579 229.1271  1.00270229 30385
SUPERBIRD-B3            
1 43271U 18033A   26165.93466611 -.00000087  00000+0  00000+0 0  9992
2 43271   0.0088 317.1838 0000889 115.8956 328.6311  1.00271345 30039
HYLAS 4                 
1 43272U 18033B   26166.03854957 -.00000229  00000+0  00000+0 0  9997
2 43272   0.0164  19.3128 0000824  66.7769 157.6197  1.00269493 30047
IRNSS-1I                
1 43286U 18035A   26165.84199394  .00000064  00000+0  00000+0 0  9995
2 43286  28.7494  74.2326 0017858 181.5121   5.3509  1.00271722 30053
USA 283                 
1 43339U 18036A   26163.71911426  .00000000  00000+0  00000+0 0  9997
2 43339   0.0199 335.2360 0000436 187.5113 131.2828  1.00273175 25248
COSMOS 2526             
1 43432U 18037A   26166.21313501 -.00000341  00000+0  00000+0 0  9999
2 43432   0.0275  34.0311 0000681 173.8705 260.3945  1.00271278 29941
APSTAR-6C               
1 43450U 18041A   26166.01219436 -.00000313  00000+0  00000+0 0  9993
2 43450   0.0241   1.9549 0001011 337.9819  61.7660  1.00269767 29786
BANGABANDHUSAT-1        
1 43463U 18044A   26166.00947531 -.00000358  00000+0  00000+0 0  9992
2 43463   0.0155  59.0426 0001598  20.9475 305.8241  1.00270855 29685
SES-12                  
1 43488U 18049A   26166.04677894 -.00000264  00000+0  00000+0 0  9996
2 43488   0.0154  12.7022 0001195 289.5511  72.9334  1.00267586 29396
FENGYUN 2H              
1 43491U 18050A   26165.98963010 -.00000127  00000+0  00000+0 0  9990
2 43491   3.0244  79.0976 0001962 137.5346 122.3352  1.00269792 29411
BEIDOU-2 IGSO-7         
1 43539U 18057A   26165.92400608 -.00000011  00000+0  00000+0 0  9995
2 43539  55.1939 163.0777 0105015 237.9971 304.9149  1.00251741 29102
TELSTAR 19V             
1 43562U 18059A   26166.14905932 -.00000275  00000+0  00000+0 0  9990
2 43562   0.0198 164.3699 0002432 311.1715 138.5526  1.00269698 29123
TELKOM 4 (MERAH PUTIH)  
1 43587U 18064A   26166.03655817 -.00000339  00000+0  00000+0 0  9996
2 43587   0.0183  63.1780 0001223  51.6291 269.6780  1.00270247 28852
TELSTAR 18V             
1 43611U 18069A   26165.78730205 -.00000288  00000+0  00000+0 0  9998
2 43611   0.0122 311.2047 0001612 128.7151 244.5797  1.00270067 28613
AZERSPACE 2 (IS-38)     
1 43632U 18074A   26166.01005258  .00000142  00000+0  00000+0 0  9995
2 43632   0.0143 338.7150 0001192 102.8293 230.4875  1.00269681 28421
HORIZONS-3E             
1 43633U 18074B   26165.65084600 -.00000024  00000+0  00000+0 0  9993
2 43633   0.0187 163.9480 0000966 106.2603  36.0409  1.00270601 28310
